{"fetched_at":"2026-07-22T07:09:22.096Z","source":"https://celestrak.org/NORAD/elements/gp.php?GROUP=oneweb&FORMAT=JSON","constellation":"oneweb","records":[{"OBJECT_NAME":"ONEWEB-0060","OBJECT_ID":"2020-020AH","EPOCH":"2026-07-21T10:19:31.446048","CLASSIFICATION_TYPE":"U","MEAN_MOTION":13.1141722,"ECCENTRICITY":0.00015017,"INCLINATION":87.8891,"RA_OF_ASC_NODE":14.2476,"ARG_OF_PERICENTER":125.8378,"MEAN_ANOMALY":234.289,"EPHEMERIS_TYPE":0,"NORAD_CAT_ID":45455,"ELEMENT_SET_NO":999,"REV_AT_EPOCH":30703,"BSTAR":-0.0013658404,"MEAN_MOTION_DOT":-0.00000471,"MEAN_MOTION_DDOT":0},{"OBJECT_NAME":"ONEWEB-0086","OBJECT_ID":"2020-020AJ","EPOCH":"2026-07-21T09:48:48.439008","CLASSIFICATION_TYPE":"U","MEAN_MOTION":13.11416052,"ECCENTRICITY":0.00020561,"INCLINATION":87.8896,"RA_OF_ASC_NODE":14.2499,"ARG_OF_PERICENTER":114.1606,"MEAN_ANOMALY":245.9737,"EPHEMERIS_TYPE":0,"NORAD_CAT_ID":45456,"ELEMENT_SET_NO":999,"REV_AT_EPOCH":30709,"BSTAR":0.00028576952,"MEAN_MOTION_DOT":0.00000114,"MEAN_MOTION_DDOT":0},{"OBJECT_NAME":"ONEWEB-0088","OBJECT_ID":"2020-020AK","EPOCH":"2026-07-21T11:07:08.217120","CLASSIFICATION_TYPE":"U","MEAN_MOTION":13.11417788,"ECCENTRICITY":0.00015913,"INCLINATION":87.8906,"RA_OF_ASC_NODE":14.2144,"ARG_OF_PERICENTER":79.8326,"MEAN_ANOMALY":280.2982,"EPHEMERIS_TYPE":0,"NORAD_CAT_ID":45457,"ELEMENT_SET_NO":999,"REV_AT_EPOCH":30703,"BSTAR":0.0014883277,"MEAN_MOTION_DOT":0.0000054,"MEAN_MOTION_DDOT":0},{"OBJECT_NAME":"ONEWEB-0102","OBJECT_ID":"2020-100A","EPOCH":"2026-07-21T16:03:56.083968","CLASSIFICATION_TYPE":"U","MEAN_MOTION":13.12444836,"ECCENTRICITY":0.00020972,"INCLINATION":87.8971,"RA_OF_ASC_NODE":343.8186,"ARG_OF_PERICENTER":102.3094,"MEAN_ANOMALY":257.8269,"EPHEMERIS_TYPE":0,"NORAD_CAT_ID":47258,"ELEMENT_SET_NO":999,"REV_AT_EPOCH":26925,"BSTAR":-0.000036659103,"MEAN_MOTION_DOT":0,"MEAN_MOTION_DDOT":0},{"OBJECT_NAME":"ONEWEB-0109","OBJECT_ID":"2020-100B","EPOCH":"2026-07-21T08:57:00.570528","CLASSIFICATION_TYPE":"U","MEAN_MOTION":13.12444436,"ECCENTRICITY":0.00020043,"INCLINATION":87.898,"RA_OF_ASC_NODE":343.864,"ARG_OF_PERICENTER":96.5438,"MEAN_ANOMALY":263.5919,"EPHEMERIS_TYPE":0,"NORAD_CAT_ID":47259,"ELEMENT_SET_NO":999,"REV_AT_EPOCH":26904,"BSTAR":0.00095593431,"MEAN_MOTION_DOT":0.00000357,"MEAN_MOTION_DDOT":0},{"OBJECT_NAME":"ONEWEB-0110","OBJECT_ID":"2020-100C","EPOCH":"2026-07-21T15:05:23.887680","CLASSIFICATION_TYPE":"U","MEAN_MOTION":13.12442204,"ECCENTRICITY":0.00019185,"INCLINATION":87.898,"RA_OF_ASC_NODE":343.7973,"ARG_OF_PERICENTER":107.0234,"MEAN_ANOMALY":253.1105,"EPHEMERIS_TYPE":0,"NORAD_CAT_ID":47260,"ELEMENT_SET_NO":999,"REV_AT_EPOCH":26924,"BSTAR":0.00071727918,"MEAN_MOTION_DOT":0.00000271,"MEAN_MOTION_DDOT":0},{"OBJECT_NAME":"ONEWEB-0111","OBJECT_ID":"2020-100D","EPOCH":"2026-07-21T08:30:10.167840","CLASSIFICATION_TYPE":"U","MEAN_MOTION":13.12444135,"ECCENTRICITY":0.0001763,"INCLINATION":87.8978,"RA_OF_ASC_NODE":343.8705,"ARG_OF_PERICENTER":99.6246,"MEAN_ANOMALY":260.5082,"EPHEMERIS_TYPE":0,"NORAD_CAT_ID":47261,"ELEMENT_SET_NO":999,"REV_AT_EPOCH":26904,"BSTAR":-0.00067668769,"MEAN_MOTION_DOT":-0.00000231,"MEAN_MOTION_DDOT":0},{"OBJECT_NAME":"ONEWEB-0114","OBJECT_ID":"2020-100E","EPOCH":"2026-07-21T09:14:05.620128","CLASSIFICATION_TYPE":"U","MEAN_MOTION":13.12443011,"ECCENTRICITY":0.00020391,"INCLINATION":87.8983,"RA_OF_ASC_NODE":343.8628,"ARG_OF_PERICENTER":94.4163,"MEAN_ANOMALY":265.7199,"EPHEMERIS_TYPE":0,"NORAD_CAT_ID":47262,"ELEMENT_SET_NO":999,"REV_AT_EPOCH":26900,"BSTAR":0.0014083234,"MEAN_MOTION_DOT":0.00000519,"MEAN_MOTION_DDOT":0},{"OBJECT_NAME":"ONEWEB-0117","OBJECT_ID":"2020-100F","EPOCH":"2026-07-21T09:01:53.775840","CLASSIFICATION_TYPE":"U","MEAN_MOTION":13.12443741,"ECCENTRICITY":0.00018743,"INCLINATION":87.8979,"RA_OF_ASC_NODE":343.8538,"ARG_OF_PERICENTER":98.2619,"MEAN_ANOMALY":261.8722,"EPHEMERIS_TYPE":0,"NORAD_CAT_ID":47263,"ELEMENT_SET_NO":999,"REV_AT_EPOCH":26901,"BSTAR":0.0011508931,"MEAN_MOTION_DOT":0.00000427,"MEAN_MOTION_DDOT":0},{"OBJECT_NAME":"ONEWEB-0118","OBJECT_ID":"2020-100G","EPOCH":"2026-07-21T15:20:01.803264","CLASSIFICATION_TYPE":"U","MEAN_MOTION":13.12441518,"ECCENTRICITY":0.00018769,"INCLINATION":87.8979,"RA_OF_ASC_NODE":343.8045,"ARG_OF_PERICENTER":87.5948,"MEAN_ANOMALY":272.5395,"EPHEMERIS_TYPE":0,"NORAD_CAT_ID":47264,"ELEMENT_SET_NO":999,"REV_AT_EPOCH":26924,"BSTAR":-0.0004560956,"MEAN_MOTION_DOT":-0.00000151,"MEAN_MOTION_DDOT":0},{"OBJECT_NAME":"ONEWEB-0119","OBJECT_ID":"2020-100H","EPOCH":"2026-07-21T15:56:37.272192","CLASSIFICATION_TYPE":"U","MEAN_MOTION":13.12443988,"ECCENTRICITY":0.00018751,"INCLINATION":87.8969,"RA_OF_ASC_NODE":343.8132,"ARG_OF_PERICENTER":96.4265,"MEAN_ANOMALY":263.7077,"EPHEMERIS_TYPE":0,"NORAD_CAT_ID":47265,"ELEMENT_SET_NO":999,"REV_AT_EPOCH":26922,"BSTAR":-0.00040673761,"MEAN_MOTION_DOT":-0.00000134,"MEAN_MOTION_DDOT":0},{"OBJECT_NAME":"ONEWEB-0120","OBJECT_ID":"2020-100J","EPOCH":"2026-07-21T07:22:04.604736","CLASSIFICATION_TYPE":"U","MEAN_MOTION":13.12442892,"ECCENTRICITY":0.00020573,"INCLINATION":87.897,"RA_OF_ASC_NODE":343.8858,"ARG_OF_PERICENTER":95.4934,"MEAN_ANOMALY":264.643,"EPHEMERIS_TYPE":0,"NORAD_CAT_ID":47266,"ELEMENT_SET_NO":999,"REV_AT_EPOCH":26920,"BSTAR":0.001386667,"MEAN_MOTION_DOT":0.00000512,"MEAN_MOTION_DDOT":0},{"OBJECT_NAME":"ONEWEB-0121","OBJECT_ID":"2020-100K","EPOCH":"2026-07-21T08:54:34.405920","CLASSIFICATION_TYPE":"U","MEAN_MOTION":13.1244373,"ECCENTRICITY":0.00015927,"INCLINATION":87.8979,"RA_OF_ASC_NODE":343.8623,"ARG_OF_PERICENTER":103.3579,"MEAN_ANOMALY":256.7727,"EPHEMERIS_TYPE":0,"NORAD_CAT_ID":47267,"ELEMENT_SET_NO":999,"REV_AT_EPOCH":26912,"BSTAR":0.00086209182,"MEAN_MOTION_DOT":0.00000323,"MEAN_MOTION_DDOT":0},{"OBJECT_NAME":"ONEWEB-0122","OBJECT_ID":"2020-100L","EPOCH":"2026-07-21T08:46:02.307072","CLASSIFICATION_TYPE":"U","MEAN_MOTION":13.12442964,"ECCENTRICITY":0.00020345,"INCLINATION":87.8979,"RA_OF_ASC_NODE":343.8686,"ARG_OF_PERICENTER":98.9167,"MEAN_ANOMALY":261.2191,"EPHEMERIS_TYPE":0,"NORAD_CAT_ID":47268,"ELEMENT_SET_NO":999,"REV_AT_EPOCH":26903,"BSTAR":0.00016756573,"MEAN_MOTION_DOT":7.3e-7,"MEAN_MOTION_DDOT":0},{"OBJECT_NAME":"ONEWEB-0123","OBJECT_ID":"2020-100M","EPOCH":"2026-07-21T08:39:55.723968","CLASSIFICATION_TYPE":"U","MEAN_MOTION":13.12444118,"ECCENTRICITY":0.00018536,"INCLINATION":87.8968,"RA_OF_ASC_NODE":343.8727,"ARG_OF_PERICENTER":93.6064,"MEAN_ANOMALY":266.5277,"EPHEMERIS_TYPE":0,"NORAD_CAT_ID":47269,"ELEMENT_SET_NO":999,"REV_AT_EPOCH":26917,"BSTAR":-0.00016183934,"MEAN_MOTION_DOT":-4.6e-7,"MEAN_MOTION_DDOT":0},{"OBJECT_NAME":"ONEWEB-0124","OBJECT_ID":"2020-100N","EPOCH":"2026-07-21T08:25:17.246784","CLASSIFICATION_TYPE":"U","MEAN_MOTION":13.12443657,"ECCENTRICITY":0.00017489,"INCLINATION":87.8967,"RA_OF_ASC_NODE":343.8772,"ARG_OF_PERICENTER":98.5703,"MEAN_ANOMALY":261.5624,"EPHEMERIS_TYPE":0,"NORAD_CAT_ID":47270,"ELEMENT_SET_NO":999,"REV_AT_EPOCH":26905,"BSTAR":-0.00078744952,"MEAN_MOTION_DOT":-0.00000271,"MEAN_MOTION_DDOT":0},{"OBJECT_NAME":"ONEWEB-0125","OBJECT_ID":"2020-100P","EPOCH":"2026-07-21T15:12:42.052320","CLASSIFICATION_TYPE":"U","MEAN_MOTION":13.12441804,"ECCENTRICITY":0.00015542,"INCLINATION":87.8981,"RA_OF_ASC_NODE":343.8084,"ARG_OF_PERICENTER":94.5548,"MEAN_ANOMALY":265.5758,"EPHEMERIS_TYPE":0,"NORAD_CAT_ID":47271,"ELEMENT_SET_NO":999,"REV_AT_EPOCH":26915,"BSTAR":-0.000052168228,"MEAN_MOTION_DOT":-6e-8,"MEAN_MOTION_DDOT":0},{"OBJECT_NAME":"ONEWEB-0126","OBJECT_ID":"2020-100Q","EPOCH":"2026-07-21T15:42:11.442240","CLASSIFICATION_TYPE":"U","MEAN_MOTION":13.12443123,"ECCENTRICITY":0.00019722,"INCLINATION":87.8973,"RA_OF_ASC_NODE":343.8174,"ARG_OF_PERICENTER":94.8502,"MEAN_ANOMALY":265.2851,"EPHEMERIS_TYPE":0,"NORAD_CAT_ID":47272,"ELEMENT_SET_NO":999,"REV_AT_EPOCH":26922,"BSTAR":-0.0010067134,"MEAN_MOTION_DOT":-0.00000349,"MEAN_MOTION_DDOT":0},{"OBJECT_NAME":"ONEWEB-0127","OBJECT_ID":"2020-100R","EPOCH":"2026-07-21T14:53:11.548320","CLASSIFICATION_TYPE":"U","MEAN_MOTION":13.12443068,"ECCENTRICITY":0.00020235,"INCLINATION":87.8968,"RA_OF_ASC_NODE":343.8214,"ARG_OF_PERICENTER":97.1057,"MEAN_ANOMALY":263.0301,"EPHEMERIS_TYPE":0,"NORAD_CAT_ID":47273,"ELEMENT_SET_NO":999,"REV_AT_EPOCH":26924,"BSTAR":0.0011674283,"MEAN_MOTION_DOT":0.00000433,"MEAN_MOTION_DDOT":0},{"OBJECT_NAME":"ONEWEB-0128","OBJECT_ID":"2020-100S","EPOCH":"2026-07-21T08:05:46.231296","CLASSIFICATION_TYPE":"U","MEAN_MOTION":13.12442661,"ECCENTRICITY":0.00018845,"INCLINATION":87.8966,"RA_OF_ASC_NODE":343.8914,"ARG_OF_PERICENTER":106.912,"MEAN_ANOMALY":253.2215,"EPHEMERIS_TYPE":0,"NORAD_CAT_ID":47274,"ELEMENT_SET_NO":999,"REV_AT_EPOCH":26922,"BSTAR":-0.00079118241,"MEAN_MOTION_DOT":-0.00000272,"MEAN_MOTION_DDOT":0},{"OBJECT_NAME":"ONEWEB-0129","OBJECT_ID":"2020-100T","EPOCH":"2026-07-21T09:26:17.668320","CLASSIFICATION_TYPE":"U","MEAN_MOTION":13.12441953,"ECCENTRICITY":0.00028997,"INCLINATION":87.8979,"RA_OF_ASC_NODE":343.8573,"ARG_OF_PERICENTER":88.7281,"MEAN_ANOMALY":271.4179,"EPHEMERIS_TYPE":0,"NORAD_CAT_ID":47275,"ELEMENT_SET_NO":999,"REV_AT_EPOCH":26916,"BSTAR":0.0010468547,"MEAN_MOTION_DOT":0.00000389,"MEAN_MOTION_DDOT":0},{"OBJECT_NAME":"ONEWEB-0130","OBJECT_ID":"2020-100U","EPOCH":"2026-07-21T15:34:39.567648","CLASSIFICATION_TYPE":"U","MEAN_MOTION":13.12443189,"ECCENTRICITY":0.00019418,"INCLINATION":87.8979,"RA_OF_ASC_NODE":343.8024,"ARG_OF_PERICENTER":98.5153,"MEAN_ANOMALY":261.6196,"EPHEMERIS_TYPE":0,"NORAD_CAT_ID":47276,"ELEMENT_SET_NO":999,"REV_AT_EPOCH":26916,"BSTAR":-0.0011147943,"MEAN_MOTION_DOT":-0.00000388,"MEAN_MOTION_DDOT":0},{"OBJECT_NAME":"ONEWEB-0131","OBJECT_ID":"2020-100V","EPOCH":"2026-07-21T08:10:39.593856","CLASSIFICATION_TYPE":"U","MEAN_MOTION":13.12442589,"ECCENTRICITY":0.00018967,"INCLINATION":87.8968,"RA_OF_ASC_NODE":343.8781,"ARG_OF_PERICENTER":102.3905,"MEAN_ANOMALY":257.7436,"EPHEMERIS_TYPE":0,"NORAD_CAT_ID":47277,"ELEMENT_SET_NO":999,"REV_AT_EPOCH":26916,"BSTAR":-0.0010930755,"MEAN_MOTION_DOT":-0.00000381,"MEAN_MOTION_DDOT":0}]}
